[{"OBJECT_NAME":"STARLINK-35696","OBJECT_ID":"2025-263E","EPOCH":"2026-03-09T03:08:59.387424","MEAN_MOTION":15.27607879,"ECCENTRICITY":0.00015752,"INCLINATION":43.0025,"RA_OF_ASC_NODE":353.837,"ARG_OF_PERICENTER":273.525,"MEAN_ANOMALY":86.5422,"EPHEMERIS_TYPE":0,"CLASSIFICATION_TYPE":"U","NORAD_CAT_ID":66489,"ELEMENT_SET_NO":999,"REV_AT_EPOCH":1881,"BSTAR":0.0020197984,"MEAN_MOTION_DOT":0.00055788,"MEAN_MOTION_DDOT":0},{"OBJECT_NAME":"LEASAT 4 PKM","OBJECT_ID":"1985-076F","EPOCH":"2026-03-08T11:39:08.744832","MEAN_MOTION":5.53350133,"ECCENTRICITY":0.50112506,"INCLINATION":27.3727,"RA_OF_ASC_NODE":235.1518,"ARG_OF_PERICENTER":95.2088,"MEAN_ANOMALY":321.4262,"EPHEMERIS_TYPE":0,"CLASSIFICATION_TYPE":"U","NORAD_CAT_ID":16001,"ELEMENT_SET_NO":999,"REV_AT_EPOCH":78664,"BSTAR":0.001658351,"MEAN_MOTION_DOT":4.59e-5,"MEAN_MOTION_DDOT":0}]
